format  = 'OEF1.1'       ! file format
rectype = 'ML'           ! record type (1L/ML)
refsys  = ECLM J2000     ! default reference system
END_OF_HEADER
2005ED224
! Equinoctial elements: a, e*sin(LP), e*cos(LP), tan(i/2)*sin(LN), tan(i/2)*cos(LN), mean long.
 EQU   1.90367416274078E+00  0.658019940247227  0.025663514886873  0.046972374169716 -0.281420413854284 107.2562101790349
 MJD     53443.70141287 TDT
 MAG  23.998  0.150
! RMS    2.14549E-01   4.14079E-02   1.32506E-02   2.00930E-03   1.43961E-02   2.57795E+00
! EIG   3.11794E-08   5.57361E-08   5.49157E-07   4.73615E-06   8.23280E-05   2.23958E-01
! WEA   0.95799   0.18489  -0.05917   0.00897  -0.06428  -0.20090
 COV   4.603134722847573E-02  8.884024394680874E-03 -2.842881241437161E-03
 COV   4.310933897185408E-04 -3.088673255081727E-03 -5.530959606243000E-01
 COV   1.714611980331695E-03 -5.486738093203761E-04  8.320085067044709E-05
 COV  -5.961125528448497E-04 -1.067472661967569E-01  1.755776175353423E-04
 COV  -2.662397791282603E-05  1.907544070085314E-04  3.415885892267278E-02
 COV   4.037302665066688E-06 -2.892619031622726E-05 -5.179878155202561E-03
 COV   2.072484920729134E-04  3.711245942736880E-02  6.645813579011897E+00
 NOR   8.815520454252302E+12 -5.617764702382952E+13  3.938481319550269E+12
 NOR  -3.143994882465327E+13 -3.316815909425042E+12 -1.949009564785199E+11
 NOR   7.466372276424745E+14  2.391665663961616E+14  1.840103171743069E+13
 NOR   1.020008034947627E+13  6.045454149622631E+12  1.814563942230148E+14
 NOR  -1.379480027527095E+14 -8.943480148323615E+12  3.179107014266401E+12
 NOR   2.061059271468261E+14  1.825487512832286E+13 -1.553275923490672E+12
 NOR   1.791003029405924E+12 -6.200869256108197E+10  6.367882783212457E+10